{"fetched_at":"2026-03-29T16:36:15Z","count":15609,"tles":[{"name":"STARLINK-30460","line1":"1 57870U 23144G   26087.30275508 -.00000451  00000+0 -68686-5 0  9994","line2":"2 57870  43.0018 180.1189 0000742 271.2827  88.7940 15.27581571140491","category":"Starlink"}]}