{
  "norad_id": 57870,
  "name": "STARLINK-30460",
  "history": [
    {
      "epoch": "2026-03-28T07:15:58.038912Z",
      "apogee_km": 483.5534915638009,
      "perigee_km": 482.5352922452412,
      "latitude_deg": 2.631875091828029e-05,
      "longitude_deg": -114.59804545152836,
      "height_km": 482.8093215529177,
      "semi_major_axis_km": 6861.181391904521,
      "eccentricity": 7.42e-05,
      "inclination_deg": 43.0018,
      "raan_deg": 180.1189,
      "arg_perigee_deg": 271.2827,
      "mean_anomaly_deg": 88.794,
      "mean_motion_rev_day": 15.27581571
    }
  ]
}